{"type": "FeatureCollection", "features": [ {"type": "Feature", "properties": {"norad_id": 30759, "name": "FENGYUN 1C DEB", "group": "fengyun-1c-debris", "lat": -78.11901241557715, "lon": 149.5573957340275, "alt_km": 721.3667319191518, "timestamp": "2025-12-16T13:52:37.802176+00:00", "meta": {"OBJECT_NAME": "FENGYUN 1C DEB", "OBJECT_ID": "1999-025ATV", "EPOCH": "2025-12-15T20:40:18.297696", "MEAN_MOTION": 14.54581014, "ECCENTRICITY": 0.00090706, "INCLINATION": 99.256, "RA_OF_ASC_NODE": 97.9488, "ARG_OF_PERICENTER": 157.9437, "MEAN_ANOMALY": 327.5936, "EPHEMERIS_TYPE": 0, "CLASSIFICATION_TYPE": "U", "NORAD_CAT_ID": 30759, "ELEMENT_SET_NO": 999, "REV_AT_EPOCH": 97700, "BSTAR": 0.0015593468, "MEAN_MOTION_DOT": 6.61e-05, "MEAN_MOTION_DDOT": 0}, "tle": {"line1": "1 30759U 99025ATV 25349.86132289  .00006610  00000+0  15593-2 0  9998", "line2": "2 30759  99.2560  97.9488 0009070 157.9437 327.5936 14.54581014977005"}}, "geometry": {"type": "Point", "coordinates": [149.5573957340275, -78.11901241557715]}}, {"type": "Feature", "properties": {"norad_id": 30760, "name": "FENGYUN 1C DEB", "group": "fengyun-1c-debris", "lat": -6.00859642063479, "lon": -11.909855820681644, "alt_km": 843.9150681091523, "timestamp": "2025-12-16T13:52:37.802189+00:00", "meta": {"OBJECT_NAME": "FENGYUN 1C DEB", "OBJECT_ID": "1999-025ATW", "EPOCH": "2025-12-15T22:31:32.319264", "MEAN_MOTION": 14.05181926, "ECCENTRICITY": 0.00526862, "INCLINATION": 98.8221, "RA_OF_ASC_NODE": 346.5314, "ARG_OF_PERICENTER": 334.48, "MEAN_ANOMALY": 25.3768, "EPHEMERIS_TYPE": 0, "CLASSIFICATION_TYPE": "U", "NORAD_CAT_ID": 30760, "ELEMENT_SET_NO": 999, "REV_AT_EPOCH": 96267, "BSTAR": 0.00028248702, "MEAN_MOTION_DOT": 4.19e-06, "MEAN_MOTION_DDOT": 0}, "tle": {"line1": "1 30760U 99025ATW 25349.93856851  .00000419  00000+0  28249-3 0  9990", "line2": "2 30760  98.8221 346.5314 0052686 334.4800  25.3768 14.05181926962671"}}, "geometry": {"type": "Point", "coordinates": [-11.909855820681644, -6.00859642063479]}}, {"type": "Feature", "properties": {"norad_id": 30761, "name": "FENGYUN 1C DEB", "group": "fengyun-1c-debris", "lat": 14.723293622978048, "lon": 99.19673318726107, "alt_km": 817.5274483373587, "timestamp": "2025-12-16T13:52:37.802200+00:00", "meta": {"OBJECT_NAME": "FENGYUN 1C DEB", "OBJECT_ID": "1999-025ATX", "EPOCH": "2025-12-15T18:42:25.571232", "MEAN_MOTION": 14.3579472, "ECCENTRICITY": 0.00842459, "INCLINATION": 98.9652, "RA_OF_ASC_NODE": 275.9891, "ARG_OF_PERICENTER": 304.9562, "MEAN_ANOMALY": 54.3731, "EPHEMERIS_TYPE": 0, "CLASSIFICATION_TYPE": "U", "NORAD_CAT_ID": 30761, "ELEMENT_SET_NO": 999, "REV_AT_EPOCH": 97785, "BSTAR": 0.00073782006, "MEAN_MOTION_DOT": 2.174e-05, "MEAN_MOTION_DDOT": 0}, "tle": {"line1": "1 30761U 99025ATX 25349.77946263  .00002174  00000+0  73782-3 0  9992", "line2": "2 30761  98.9652 275.9891 0084245 304.9562  54.3731 14.35794720977852"}}, "geometry": {"type": "Point", "coordinates": [99.19673318726107, 14.723293622978048]}}, {"type": "Feature", "properties": {"norad_id": 30762, "name": "FENGYUN 1C DEB", "group": "fengyun-1c-debris", "lat": 3.282721030172697, "lon": 161.75509018763708, "alt_km": 944.504180098178, "timestamp": "2025-12-16T13:52:37.802212+00:00", "meta": {"OBJECT_NAME": "FENGYUN 1C DEB", "OBJECT_ID": "1999-025ATY", "EPOCH": "2025-12-14T21:48:43.049376", "MEAN_MOTION": 13.98095885, "ECCENTRICITY": 0.01975096, "INCLINATION": 98.8748, "RA_OF_ASC_NODE": 339.6263, "ARG_OF_PERICENTER": 289.1082, "MEAN_ANOMALY": 131.9745, "EPHEMERIS_TYPE": 0, "CLASSIFICATION_TYPE": "U", "NORAD_CAT_ID": 30762, "ELEMENT_SET_NO": 999, "REV_AT_EPOCH": 95668, "BSTAR": 0.00060103514, "MEAN_MOTION_DOT": 9.65e-06, "MEAN_MOTION_DDOT": 0}, "tle": {"line1": "1 30762U 99025ATY 25348.90883159  .00000965  00000+0  60104-3 0  9991", "line2": "2 30762  98.8748 339.6263 0197509 289.1082 131.9745 13.98095885956687"}}, "geometry": {"type": "Point", "coordinates": [161.75509018763708, 3.282721030172697]}}, {"type": "Feature", "properties": {"norad_id": 30763, "name": "FENGYUN 1C DEB", "group": "fengyun-1c-debris", "lat": -25.793103233215543, "lon": -122.11325570156636, "alt_km": 684.3241084125602, "timestamp": "2025-12-16T13:52:37.802222+00:00", "meta": {"OBJECT_NAME": "FENGYUN 1C DEB", "OBJECT_ID": "1999-025ATZ", "EPOCH": "2025-12-15T16:18:22.547232", "MEAN_MOTION": 14.6122676, "ECCENTRICITY": 0.0023581, "INCLINATION": 98.893, "RA_OF_ASC_NODE": 61.2611, "ARG_OF_PERICENTER": 260.0204, "MEAN_ANOMALY": 260.9294, "EPHEMERIS_TYPE": 0, "CLASSIFICATION_TYPE": "U", "NORAD_CAT_ID": 30763, "ELEMENT_SET_NO": 999, "REV_AT_EPOCH": 97187, "BSTAR": 0.0023841412, "MEAN_MOTION_DOT": 0.00011762, "MEAN_MOTION_DDOT": 0}, "tle": {"line1": "1 30763U 99025ATZ 25349.67942763  .00011762  00000+0  23841-2 0  9997", "line2": "2 30763  98.8930  61.2611 0023581 260.0204 260.9294 14.61226760971877"}}, "geometry": {"type": "Point", "coordinates": [-122.11325570156636, -25.793103233215543]}}, {"type": "Feature", "properties": {"norad_id": 30764, "name": "FENGYUN 1C DEB", "group": "fengyun-1c-debris", "lat": -62.91980289739395, "lon": -20.48161145501407, "alt_km": 524.2137441854657, "timestamp": "2025-12-16T13:52:37.802235+00:00", "meta": {"OBJECT_NAME": "FENGYUN 1C DEB", "OBJECT_ID": "1999-025AUA", "EPOCH": "2025-12-15T20:53:17.742336", "MEAN_MOTION": 15.29289145, "ECCENTRICITY": 0.00761991, "INCLINATION": 98.7777, "RA_OF_ASC_NODE": 321.0933, "ARG_OF_PERICENTER": 159.2744, "MEAN_ANOMALY": 201.1611, "EPHEMERIS_TYPE": 0, "CLASSIFICATION_TYPE": "U", "NORAD_CAT_ID": 30764, "ELEMENT_SET_NO": 999, "REV_AT_EPOCH": 1270, "BSTAR": 0.00076367309, "MEAN_MOTION_DOT": 0.00023644, "MEAN_MOTION_DDOT": 0}, "tle": {"line1": "1 30764U 99025AUA 25349.87034424  .00023644  00000+0  76367-3 0  9990", "line2": "2 30764  98.7777 321.0933 0076199 159.2744 201.1611 15.29289145 12700"}}, "geometry": {"type": "Point", "coordinates": [-20.48161145501407, -62.91980289739395]}}, {"type": "Feature", "properties": {"norad_id": 30765, "name": "FENGYUN 1C DEB", "group": "fengyun-1c-debris", "lat": -60.55802893850085, "lon": -159.39039064959005, "alt_km": 814.3597865075017, "timestamp": "2025-12-16T13:52:37.802245+00:00", "meta": {"OBJECT_NAME": "FENGYUN 1C DEB", "OBJECT_ID": "1999-025AUB", "EPOCH": "2025-12-15T15:24:07.091136", "MEAN_MOTION": 14.14721018, "ECCENTRICITY": 0.00684173, "INCLINATION": 98.7883, "RA_OF_ASC_NODE": 35.5946, "ARG_OF_PERICENTER": 200.9, "MEAN_ANOMALY": 313.5346, "EPHEMERIS_TYPE": 0, "CLASSIFICATION_TYPE": "U", "NORAD_CAT_ID": 30765, "ELEMENT_SET_NO": 999, "REV_AT_EPOCH": 96863, "BSTAR": 0.00066571857, "MEAN_MOTION_DOT": 1.267e-05, "MEAN_MOTION_DDOT": 0}, "tle": {"line1": "1 30765U 99025AUB 25349.64174874  .00001267  00000+0  66572-3 0  9994", "line2": "2 30765  98.7883  35.5946 0068417 200.9000 313.5346 14.14721018968631"}}, "geometry": {"type": "Point", "coordinates": [-159.39039064959005, -60.55802893850085]}}, {"type": "Feature", "properties": {"norad_id": 30766, "name": "FENGYUN 1C DEB", "group": "fengyun-1c-debris", "lat": 45.784687593476754, "lon": -18.19745362483499, "alt_km": 798.9757307957861, "timestamp": "2025-12-16T13:52:37.802255+00:00", "meta": {"OBJECT_NAME": "FENGYUN 1C DEB", "OBJECT_ID": "1999-025AUC", "EPOCH": "2025-12-15T07:04:11.928864", "MEAN_MOTION": 14.09535307, "ECCENTRICITY": 0.00836782, "INCLINATION": 98.6724, "RA_OF_ASC_NODE": 349.591, "ARG_OF_PERICENTER": 67.2731, "MEAN_ANOMALY": 309.6105, "EPHEMERIS_TYPE": 0, "CLASSIFICATION_TYPE": "U", "NORAD_CAT_ID": 30766, "ELEMENT_SET_NO": 999, "REV_AT_EPOCH": 62833, "BSTAR": 0.00078621277, "MEAN_MOTION_DOT": 1.379e-05, "MEAN_MOTION_DDOT": 0}, "tle": {"line1": "1 30766U 99025AUC 25349.29458251  .00001379  00000+0  78621-3 0  9992", "line2": "2 30766  98.6724 349.5910 0083678  67.2731 309.6105 14.09535307628332"}}, "geometry": {"type": "Point", "coordinates": [-18.19745362483499, 45.784687593476754]}}, {"type": "Feature", "properties": {"norad_id": 30768, "name": "FENGYUN 1C DEB", "group": "fengyun-1c-debris", "lat": 63.82468742890924, "lon": -81.63528293268377, "alt_km": 710.0160348174777, "timestamp": "2025-12-16T13:52:37.802265+00:00", "meta": {"OBJECT_NAME": "FENGYUN 1C DEB", "OBJECT_ID": "1999-025AUE", "EPOCH": "2025-12-15T18:08:42.191232", "MEAN_MOTION": 14.47948022, "ECCENTRICITY": 0.00250529, "INCLINATION": 98.6181, "RA_OF_ASC_NODE": 79.5553, "ARG_OF_PERICENTER": 91.578, "MEAN_ANOMALY": 59.873, "EPHEMERIS_TYPE": 0, "CLASSIFICATION_TYPE": "U", "NORAD_CAT_ID": 30768, "ELEMENT_SET_NO": 999, "REV_AT_EPOCH": 97914, "BSTAR": 0.0013597034, "MEAN_MOTION_DOT": 5.02e-05, "MEAN_MOTION_DDOT": 0}, "tle": {"line1": "1 30768U 99025AUE 25349.75604388  .00005020  00000+0  13597-2 0  9996", "line2": "2 30768  98.6181  79.5553 0025052  91.5780  59.8730 14.47948022979140"}}, "geometry": {"type": "Point", "coordinates": [-81.63528293268377, 63.82468742890924]}}, {"type": "Feature", "properties": {"norad_id": 30770, "name": "FENGYUN 1C DEB", "group": "fengyun-1c-debris", "lat": -80.99706256988064, "lon": 70.52309210941824, "alt_km": 838.0964162390983, "timestamp": "2025-12-16T13:52:37.802275+00:00", "meta": {"OBJECT_NAME": "FENGYUN 1C DEB", "OBJECT_ID": "1999-025AUG", "EPOCH": "2025-12-15T11:52:22.555200", "MEAN_MOTION": 14.15687243, "ECCENTRICITY": 0.00127596, "INCLINATION": 98.6544, "RA_OF_ASC_NODE": 355.4655, "ARG_OF_PERICENTER": 277.564, "MEAN_ANOMALY": 235.9397, "EPHEMERIS_TYPE": 0, "CLASSIFICATION_TYPE": "U", "NORAD_CAT_ID": 30770, "ELEMENT_SET_NO": 999, "REV_AT_EPOCH": 96946, "BSTAR": 0.00030705272, "MEAN_MOTION_DOT": 5.6e-06, "MEAN_MOTION_DDOT": 0}, "tle": {"line1": "1 30770U 99025AUG 25349.49470550  .00000560  00000+0  30705-3 0  9997", "line2": "2 30770  98.6544 355.4655 0012759 277.5640 235.9397 14.15687243969466"}}, "geometry": {"type": "Point", "coordinates": [70.52309210941824, -80.99706256988064]}}]}